{
  "type": "FeatureCollection",
  "features": [
    {
      "type": "Feature",
      "properties": {
        "norad_id": 35123,
        "name": "FENGYUN 1C DEB",
        "group": "fengyun-1c-debris",
        "lat": 7.319761382532064,
        "lon": -11.50758118148166,
        "alt_km": 813.2505645426318,
        "timestamp": "2025-12-10T16:57:11.923828+00:00",
        "meta_object_name": "FENGYUN 1C DEB",
        "meta_object_id": "1999-025DLB",
        "meta_epoch": "2025-12-08T18:37:37.109280",
        "meta_mean_motion": 14.24202991,
        "meta_eccentricity": 0.00495513,
        "meta_inclination": 99.1215,
        "meta_ra_of_asc_node": 165.3075,
        "meta_arg_of_pericenter": 87.3864,
        "meta_mean_anomaly": 273.2984,
        "meta_ephemeris_type": 0,
        "meta_classification_type": "U",
        "meta_norad_cat_id": 35123,
        "meta_element_set_no": 999,
        "meta_rev_at_epoch": 61017,
        "meta_bstar": 0.00099768777,
        "meta_mean_motion_dot": 2.282e-05,
        "meta_mean_motion_ddot": 0,
        "tle_line1": "1 35123U 99025DLB 25342.77612395  .00002282  00000+0  99769-3 0  9991",
        "tle_line2": "2 35123  99.1215 165.3075 0049551  87.3864 273.2984 14.24202991610174"
      },
      "geometry": {
        "type": "Point",
        "coordinates": [
          -11.50758118148166,
          7.319761382532064
        ]
      }
    },
    {
      "type": "Feature",
      "properties": {
        "norad_id": 35125,
        "name": "FENGYUN 1C DEB",
        "group": "fengyun-1c-debris",
        "lat": -9.757090647292165,
        "lon": 174.431658277716,
        "alt_km": 798.7445478468862,
        "timestamp": "2025-12-10T16:57:11.923838+00:00",
        "meta_object_name": "FENGYUN 1C DEB",
        "meta_object_id": "1999-025DLD",
        "meta_epoch": "2025-12-08T07:05:36.118752",
        "meta_mean_motion": 14.33084151,
        "meta_eccentricity": 0.00521413,
        "meta_inclination": 98.2165,
        "meta_ra_of_asc_node": 353.5679,
        "meta_arg_of_pericenter": 308.0323,
        "meta_mean_anomaly": 51.6162,
        "meta_ephemeris_type": 0,
        "meta_classification_type": "U",
        "meta_norad_cat_id": 35125,
        "meta_element_set_no": 999,
        "meta_rev_at_epoch": 31218,
        "meta_bstar": 0.0020544677,
        "meta_mean_motion_dot": 5.68e-05,
        "meta_mean_motion_ddot": 0,
        "tle_line1": "1 35125U 99025DLD 25342.29555693  .00005680  00000+0  20545-2 0  9997",
        "tle_line2": "2 35125  98.2165 353.5679 0052141 308.0323  51.6162 14.33084151312185"
      },
      "geometry": {
        "type": "Point",
        "coordinates": [
          174.431658277716,
          -9.757090647292165
        ]
      }
    },
    {
      "type": "Feature",
      "properties": {
        "norad_id": 35130,
        "name": "FENGYUN 1C DEB",
        "group": "fengyun-1c-debris",
        "lat": 10.347328005629967,
        "lon": -172.7151787114174,
        "alt_km": 567.4618436696637,
        "timestamp": "2025-12-10T16:57:11.923847+00:00",
        "meta_object_name": "FENGYUN 1C DEB",
        "meta_object_id": "1999-025DLJ",
        "meta_epoch": "2025-12-10T07:17:51.253152",
        "meta_mean_motion": 14.99407631,
        "meta_eccentricity": 0.0008927,
        "meta_inclination": 99.0327,
        "meta_ra_of_asc_node": 188.4832,
        "meta_arg_of_pericenter": 78.6243,
        "meta_mean_anomaly": 281.5979,
        "meta_ephemeris_type": 0,
        "meta_classification_type": "U",
        "meta_norad_cat_id": 35130,
        "meta_element_set_no": 999,
        "meta_rev_at_epoch": 64877,
        "meta_bstar": 0.012225,
        "meta_mean_motion_dot": 0.00152975,
        "meta_mean_motion_ddot": 0,
        "tle_line1": "1 35130U 99025DLJ 25344.30406543  .00152975  00000+0  12225-1 0  9991",
        "tle_line2": "2 35130  99.0327 188.4832 0008927  78.6243 281.5979 14.99407631648771"
      },
      "geometry": {
        "type": "Point",
        "coordinates": [
          -172.7151787114174,
          10.347328005629967
        ]
      }
    },
    {
      "type": "Feature",
      "properties": {
        "norad_id": 35135,
        "name": "FENGYUN 1C DEB",
        "group": "fengyun-1c-debris",
        "lat": -11.536219699666507,
        "lon": -4.668463048505085,
        "alt_km": 789.8903403873037,
        "timestamp": "2025-12-10T16:57:11.923857+00:00",
        "meta_object_name": "FENGYUN 1C DEB",
        "meta_object_id": "1999-025DLP",
        "meta_epoch": "2025-12-10T06:52:44.806944",
        "meta_mean_motion": 14.22529436,
        "meta_eccentricity": 0.0080993,
        "meta_inclination": 98.565,
        "meta_ra_of_asc_node": 353.1608,
        "meta_arg_of_pericenter": 291.6551,
        "meta_mean_anomaly": 67.6016,
        "meta_ephemeris_type": 0,
        "meta_classification_type": "U",
        "meta_norad_cat_id": 35135,
        "meta_element_set_no": 999,
        "meta_rev_at_epoch": 87789,
        "meta_bstar": 0.00073581,
        "meta_mean_motion_dot": 1.655e-05,
        "meta_mean_motion_ddot": 0,
        "tle_line1": "1 35135U 99025DLP 25344.28662971  .00001655  00000+0  73581-3 0  9994",
        "tle_line2": "2 35135  98.5650 353.1608 0080993 291.6551  67.6016 14.22529436877899"
      },
      "geometry": {
        "type": "Point",
        "coordinates": [
          -4.668463048505085,
          -11.536219699666507
        ]
      }
    },
    {
      "type": "Feature",
      "properties": {
        "norad_id": 35139,
        "name": "FENGYUN 1C DEB",
        "group": "fengyun-1c-debris",
        "lat": 81.26532807261532,
        "lon": -110.55709314638113,
        "alt_km": 855.8876111561867,
        "timestamp": "2025-12-10T16:57:11.923867+00:00",
        "meta_object_name": "FENGYUN 1C DEB",
        "meta_object_id": "1999-025DLT",
        "meta_epoch": "2025-11-29T06:46:18.583392",
        "meta_mean_motion": 14.21054019,
        "meta_eccentricity": 0.00685814,
        "meta_inclination": 98.5841,
        "meta_ra_of_asc_node": 338.8823,
        "meta_arg_of_pericenter": 336.9878,
        "meta_mean_anomaly": 22.8231,
        "meta_ephemeris_type": 0,
        "meta_classification_type": "U",
        "meta_norad_cat_id": 35139,
        "meta_element_set_no": 999,
        "meta_rev_at_epoch": 63962,
        "meta_bstar": 0.00042081079,
        "meta_mean_motion_dot": 8.92e-06,
        "meta_mean_motion_ddot": 0,
        "tle_line1": "1 35139U 99025DLT 25333.28215953  .00000892  00000+0  42081-3 0  9993",
        "tle_line2": "2 35139  98.5841 338.8823 0068581 336.9878  22.8231 14.21054019639626"
      },
      "geometry": {
        "type": "Point",
        "coordinates": [
          -110.55709314638113,
          81.26532807261532
        ]
      }
    },
    {
      "type": "Feature",
      "properties": {
        "norad_id": 35140,
        "name": "FENGYUN 1C DEB",
        "group": "fengyun-1c-debris",
        "lat": 4.056023868527001,
        "lon": 146.7702946115874,
        "alt_km": 1014.7273030070164,
        "timestamp": "2025-12-10T16:57:11.923876+00:00",
        "meta_object_name": "FENGYUN 1C DEB",
        "meta_object_id": "1999-025DLU",
        "meta_epoch": "2025-12-10T04:17:21.591168",
        "meta_mean_motion": 14.21339397,
        "meta_eccentricity": 0.02908435,
        "meta_inclination": 98.4462,
        "meta_ra_of_asc_node": 325.661,
        "meta_arg_of_pericenter": 334.1301,
        "meta_mean_anomaly": 24.5574,
        "meta_ephemeris_type": 0,
        "meta_classification_type": "U",
        "meta_norad_cat_id": 35140,
        "meta_element_set_no": 999,
        "meta_rev_at_epoch": 87242,
        "meta_bstar": 0.00038598155,
        "meta_mean_motion_dot": 1.243e-05,
        "meta_mean_motion_ddot": 0,
        "tle_line1": "1 35140U 99025DLU 25344.17872212  .00001243  00000+0  38598-3 0  9991",
        "tle_line2": "2 35140  98.4462 325.6610 0290843 334.1301  24.5574 14.21339397872424"
      },
      "geometry": {
        "type": "Point",
        "coordinates": [
          146.7702946115874,
          4.056023868527001
        ]
      }
    },
    {
      "type": "Feature",
      "properties": {
        "norad_id": 35142,
        "name": "FENGYUN 1C DEB",
        "group": "fengyun-1c-debris",
        "lat": -22.830740543800644,
        "lon": -19.241932968874874,
        "alt_km": 967.5317391270273,
        "timestamp": "2025-12-10T16:57:11.923886+00:00",
        "meta_object_name": "FENGYUN 1C DEB",
        "meta_object_id": "1999-025DLW",
        "meta_epoch": "2025-12-09T05:05:48.253920",
        "meta_mean_motion": 13.90504392,
        "meta_eccentricity": 0.0107529,
        "meta_inclination": 99.0435,
        "meta_ra_of_asc_node": 335.4601,
        "meta_arg_of_pericenter": 223.7341,
        "meta_mean_anomaly": 197.3877,
        "meta_ephemeris_type": 0,
        "meta_classification_type": "U",
        "meta_norad_cat_id": 35142,
        "meta_element_set_no": 999,
        "meta_rev_at_epoch": 85640,
        "meta_bstar": 0.00033873,
        "meta_mean_motion_dot": 3.98e-06,
        "meta_mean_motion_ddot": 0,
        "tle_line1": "1 35142U 99025DLW 25343.21236405  .00000398  00000+0  33873-3 0  9996",
        "tle_line2": "2 35142  99.0435 335.4601 0107529 223.7341 197.3877 13.90504392856406"
      },
      "geometry": {
        "type": "Point",
        "coordinates": [
          -19.241932968874874,
          -22.830740543800644
        ]
      }
    }
  ]
}